KUIPER-00074            
1 64821U 25151F   25228.44153113  .00022617  00000+0  64811-3 0  9996
2 64821  51.8772 137.3017 0004572 260.3535  99.6935 15.35809263  4789
KUIPER-00075            
1 64822U 25151G   25228.04662001  .00025368  00000+0  70513-3 0  9996
2 64822  51.8773 139.1627 0004586 248.5683 111.4815 15.36692878  4722
KUIPER-00076            
1 64823U 25151H   25228.76929980  .00026446  00000+0  75758-3 0  9992
2 64823  51.8770 135.7489 0004740 252.2562 107.7907 15.35726316  4834
KUIPER-00077            
1 64824U 25151J   25228.77180344  .00027025  00000+0  77419-3 0  9997
2 64824  51.8785 135.7731 0005037 266.4532  93.5878 15.35712193  4832
KUIPER-00078            
1 64825U 25151K   25228.77116505  .00028023  00000+0  80169-3 0  9991
2 64825  51.8783 135.7637 0005028 268.6524  91.3886 15.35735373  4831
KUIPER-00079            
1 64826U 25151L   25228.91670139 -.00023687  00000+0 -83050-3 0  9991
2 64826  51.8798 135.1439 0004641 260.8238 132.3397 15.28547417  4394
KUIPER-00080            
1 64827U 25151M   25228.91670139 -.00020922  00000+0 -69413-3 0  9998
2 64827  51.8793 135.1912 0002832 284.9651 108.4396 15.30260910  5007
KUIPER-00082            
1 64828U 25151N   25228.76200318  .00027737  00000+0  78346-3 0  9994
2 64828  51.8780 135.7024 0004875 250.2448 109.8013 15.36140550  4837
KUIPER-00083            
1 64829U 25151P   25228.76989800  .00022683  00000+0  65051-3 0  9999
2 64829  51.8772 135.7529 0005076 255.6488 104.3934 15.35781085  6024
KUIPER-00084            
1 64830U 25151Q   25228.91670139 -.00020286  00000+0 -10062-2 0  9990
2 64830  51.8882 136.3368 0006890 245.8412 267.2917 15.16782253  4585
KUIPER-00085            
1 64831U 25151R   25228.75942917  .00023633  00000+0  66634-3 0  9993
2 64831  51.8781 135.6894 0005873 247.5337 112.5027 15.36283847  4834
KUIPER-00086            
1 64832U 25151S   25228.91670139 -.00015685  00000+0 -45570-3 0  9992
2 64832  51.8775 135.0879 0005859 265.8564 163.8487 15.34230668  4430
KUIPER-00087            
1 64833U 25151T   25228.76414126  .00038970  00000+0  10988-2 0  9992
2 64833  51.8774 135.7220 0004826 241.2258 118.8243 15.36025214  4833
KUIPER-00089            
1 64834U 25151U   25228.77003920  .00023900  00000+0  68533-3 0  9997
2 64834  51.8783 135.7621 0005193 266.9289  93.1103 15.35752022  4838
KUIPER-00090            
1 64835U 25151V   25228.77465967  .00032449  00000+0  93282-3 0  9998
2 64835  51.8783 135.7883 0004842 274.3901  85.6531 15.35508365  4833
KUIPER-00091            
1 64836U 25151W   25228.76126086  .00030462  00000+0  86054-3 0  9996
2 64836  51.8782 135.6981 0005188 243.3834 116.6621 15.36085186  4833
KUIPER-00092            
1 64837U 25151X   25228.76447789  .00042716  00000+0  12006-2 0  9993
2 64837  51.8765 135.7169 0005682 258.4842 101.5506 15.36078676  6045
KUIPER-00093            
1 64838U 25151Y   25228.44375264  .00015517  00000+0  44908-3 0  9993
2 64838  51.8787 137.3255 0004889 257.6719 102.3719 15.35765736  4789
KUIPER-00094            
1 64839U 25151Z   25228.76410977  .00036930  00000+0  10427-2 0  9990
2 64839  51.8765 135.7150 0005452 260.4492  99.5879 15.36005181  4831
